start=new Date('2021-11-16T00:00:00.000Z').valueOf();
sats=[{"MEAN_MOTION":"15.06398032","PERIOD":"95.592","CLASSIFICATION_TYPE":"U","NORAD_CAT_ID":"47367","MEAN_MOTION_DOT":"0.00001863","SEMIMAJOR_AXIS":"6925.355","OBJECT_NAME":"STARLINK-2082","EPHEMERIS_TYPE":"0","PERIAPSIS":"546.105","REF_FRAME":"TEME","APOAPSIS":"548.335","COUNTRY_CODE":"US","SITE":"AFETR","MEAN_ELEMENT_THEORY":"SGP4","MEAN_ANOMALY":"286.5400","RA_OF_ASC_NODE":"290.9343","ARG_OF_PERICENTER":"73.5766","FILE":"3215928","MEAN_MOTION_DDOT":"0.0000000000000","RCS_SIZE":"LARGE","CENTER_NAME":"EARTH","REV_AT_EPOCH":"4569","TLE_LINE1":"1 47367U 21005U   21319.94497778  .00001863  00000-0  14394-3 0  9998","TLE_LINE2":"2 47367  53.0550 290.9343 0001610  73.5766 286.5400 15.06398032 45695","TIME_SYSTEM":"UTC","OBJECT_ID":"2021-005U","LAUNCH_DATE":"2021-01-20","GP_ID":"189838471","BSTAR":"0.00014394000000","OBJECT_TYPE":"PAYLOAD","EPOCH":"2021-11-15T22:40:46.080192","INCLINATION":"53.0550","DECAY_DATE":null,"ECCENTRICITY":"0.00016100","ELEMENT_SET_NO":"999"},{"GP_ID":"189837219","ECCENTRICITY":"0.00015190","DECAY_DATE":null,"ELEMENT_SET_NO":"999","INCLINATION":"53.0542","EPOCH":"2021-11-15T22:30:08.503488","BSTAR":"0.00018886000000","OBJECT_TYPE":"PAYLOAD","TLE_LINE2":"2 47368  53.0542 290.9574 0001519  59.2617 300.8521 15.06401566 45698","TLE_LINE1":"1 47368U 21005V   21319.93759842  .00002533  00000-0  18886-3 0  9996","CENTER_NAME":"EARTH","REV_AT_EPOCH":"4569","LAUNCH_DATE":"2021-01-20","OBJECT_ID":"2021-005V","TIME_SYSTEM":"UTC","SITE":"AFETR","MEAN_ELEMENT_THEORY":"SGP4","MEAN_ANOMALY":"300.8521","COUNTRY_CODE":"US","ARG_OF_PERICENTER":"59.2617","RA_OF_ASC_NODE":"290.9574","APOAPSIS":"548.261","RCS_SIZE":"LARGE","MEAN_MOTION_DDOT":"0.0000000000000","FILE":"3215928","MEAN_MOTION_DOT":"0.00002533","CLASSIFICATION_TYPE":"U","PERIOD":"95.592","NORAD_CAT_ID":"47368","SEMIMAJOR_AXIS":"6925.344","MEAN_MOTION":"15.06401566","REF_FRAME":"TEME","OBJECT_NAME":"STARLINK-2084","EPHEMERIS_TYPE":"0","PERIAPSIS":"546.157"},{"RCS_SIZE":"LARGE","FILE":"3215681","MEAN_MOTION_DDOT":"0.0000000000000","COUNTRY_CODE":"US","MEAN_ANOMALY":"296.8166","SITE":"AFETR","MEAN_ELEMENT_THEORY":"SGP4","RA_OF_ASC_NODE":"272.4271","ARG_OF_PERICENTER":"63.2995","APOAPSIS":"548.387","REF_FRAME":"TEME","OBJECT_NAME":"STARLINK-2085","EPHEMERIS_TYPE":"0","PERIAPSIS":"546.064","NORAD_CAT_ID":"47369","PERIOD":"95.592","CLASSIFICATION_TYPE":"U","MEAN_MOTION_DOT":"0.00000026","SEMIMAJOR_AXIS":"6925.360","MEAN_MOTION":"15.06396108","DECAY_DATE":null,"ECCENTRICITY":"0.00016770","ELEMENT_SET_NO":"999","OBJECT_TYPE":"PAYLOAD","BSTAR":"0.00002064500000","EPOCH":"2021-11-15T14:40:25.119840","INCLINATION":"53.0552","GP_ID":"189809177","LAUNCH_DATE":"2021-01-20","TIME_SYSTEM":"UTC","OBJECT_ID":"2021-005W","TLE_LINE1":"1 47369U 21005W   21319.61140185  .00000026  00000-0  20645-4 0  9998","TLE_LINE2":"2 47369  53.0552 272.4271 0001677  63.2995 296.8166 15.06396108 45928","CENTER_NAME":"EARTH","REV_AT_EPOCH":"4592"},{"TLE_LINE2":"2 47370  53.0608 254.0877 0001818  63.1576 296.9598 15.06394111 46159","TLE_LINE1":"1 47370U 21005X   21319.23728050 -.00000238  00000-0  29584-5 0  9999","REV_AT_EPOCH":"4615","CENTER_NAME":"EARTH","LAUNCH_DATE":"2021-01-20","OBJECT_ID":"2021-005X","TIME_SYSTEM":"UTC","GP_ID":"189809427","ELEMENT_SET_NO":"999","ECCENTRICITY":"0.00018180","DECAY_DATE":null,"INCLINATION":"53.0608","EPOCH":"2021-11-15T05:41:41.035200","OBJECT_TYPE":"PAYLOAD","BSTAR":"0.00000295840000","SEMIMAJOR_AXIS":"6925.367","MEAN_MOTION_DOT":"-0.00000238","NORAD_CAT_ID":"47370","PERIOD":"95.593","CLASSIFICATION_TYPE":"U","MEAN_MOTION":"15.06394111","REF_FRAME":"TEME","PERIAPSIS":"545.973","OBJECT_NAME":"STARLINK-2086","EPHEMERIS_TYPE":"0","ARG_OF_PERICENTER":"63.1576","RA_OF_ASC_NODE":"254.0877","SITE":"AFETR","MEAN_ANOMALY":"296.9598","MEAN_ELEMENT_THEORY":"SGP4","COUNTRY_CODE":"US","APOAPSIS":"548.491","RCS_SIZE":"LARGE","MEAN_MOTION_DDOT":"0.0000000000000","FILE":"3215681"},{"REF_FRAME":"TEME","PERIAPSIS":"546.010","EPHEMERIS_TYPE":"0","OBJECT_NAME":"STARLINK-2088","SEMIMAJOR_AXIS":"6925.363","MEAN_MOTION_DOT":"-0.00000107","PERIOD":"95.592","CLASSIFICATION_TYPE":"U","NORAD_CAT_ID":"47371","MEAN_MOTION":"15.06395137","RCS_SIZE":"LARGE","MEAN_MOTION_DDOT":"0.0000000000000","FILE":"3215928","ARG_OF_PERICENTER":"71.9661","RA_OF_ASC_NODE":"290.8899","SITE":"AFETR","MEAN_ELEMENT_THEORY":"SGP4","MEAN_ANOMALY":"288.1520","COUNTRY_CODE":"US","APOAPSIS":"548.447","LAUNCH_DATE":"2021-01-20","TIME_SYSTEM":"UTC","OBJECT_ID":"2021-005Y","TLE_LINE2":"2 47371  53.0549 290.8899 0001760  71.9661 288.1520 15.06395137 45699","TLE_LINE1":"1 47371U 21005Y   21319.95235315 -.00000107  00000-0  11714-4 0  9996","REV_AT_EPOCH":"4569","CENTER_NAME":"EARTH","ELEMENT_SET_NO":"999","ECCENTRICITY":"0.00017600","DECAY_DATE":null,"INCLINATION":"53.0549","EPOCH":"2021-11-15T22:51:23.312160","BSTAR":"0.00001171400000","OBJECT_TYPE":"PAYLOAD","GP_ID":"189838971"},{"APOAPSIS":"548.398","COUNTRY_CODE":"US","SITE":"AFETR","MEAN_ELEMENT_THEORY":"SGP4","MEAN_ANOMALY":"299.8380","RA_OF_ASC_NODE":"286.0360","ARG_OF_PERICENTER":"60.2779","FILE":"3215891","MEAN_MOTION_DDOT":"0.0000000000000","RCS_SIZE":"LARGE","MEAN_MOTION":"15.06401200","CLASSIFICATION_TYPE":"U","PERIOD":"95.592","NORAD_CAT_ID":"47372","MEAN_MOTION_DOT":"0.00000120","SEMIMAJOR_AXIS":"6925.345","OBJECT_NAME":"STARLINK-2089","EPHEMERIS_TYPE":"0","PERIAPSIS":"546.022","REF_FRAME":"TEME","GP_ID":"189815812","BSTAR":"0.00002696500000","OBJECT_TYPE":"PAYLOAD","INCLINATION":"53.0550","EPOCH":"2021-11-15T22:00:15.327648","DECAY_DATE":null,"ECCENTRICITY":"0.00017150","ELEMENT_SET_NO":"999","CENTER_NAME":"EARTH","REV_AT_EPOCH":"4575","TLE_LINE1":"1 47372U 21005Z   21319.91684407  .00000120  00000-0  26965-4 0  9991","TLE_LINE2":"2 47372  53.0550 286.0360 0001715  60.2779 299.8380 15.06401200 45752","TIME_SYSTEM":"UTC","OBJECT_ID":"2021-005Z","LAUNCH_DATE":"2021-01-20"},{"ARG_OF_PERICENTER":"65.9992","RA_OF_ASC_NODE":"290.8996","MEAN_ELEMENT_THEORY":"SGP4","SITE":"AFETR","MEAN_ANOMALY":"294.1158","COUNTRY_CODE":"US","APOAPSIS":"548.299","RCS_SIZE":"LARGE","MEAN_MOTION_DDOT":"0.0000000000000","FILE":"3215928","SEMIMAJOR_AXIS":"6925.369","MEAN_MOTION_DOT":"0.00001080","CLASSIFICATION_TYPE":"U","PERIOD":"95.593","NORAD_CAT_ID":"47373","MEAN_MOTION":"15.06393304","REF_FRAME":"TEME","PERIAPSIS":"546.170","EPHEMERIS_TYPE":"0","OBJECT_NAME":"STARLINK-2092","GP_ID":"189837969","ELEMENT_SET_NO":"999","ECCENTRICITY":"0.00015370","DECAY_DATE":null,"INCLINATION":"53.0545","EPOCH":"2021-11-15T22:46:04.697472","OBJECT_TYPE":"PAYLOAD","BSTAR":"0.00009141000000","TLE_LINE2":"2 47373  53.0545 290.8996 0001537  65.9992 294.1158 15.06393304 45695","TLE_LINE1":"1 47373U 21005AA  21319.94866548  .00001080  00000-0  91410-4 0  9996","REV_AT_EPOCH":"4569","CENTER_NAME":"EARTH","LAUNCH_DATE":"2021-01-20","OBJECT_ID":"2021-005AA","TIME_SYSTEM":"UTC"},{"SITE":"AFETR","MEAN_ELEMENT_THEORY":"SGP4","MEAN_ANOMALY":"298.5344","COUNTRY_CODE":"US","ARG_OF_PERICENTER":"61.5802","RA_OF_ASC_NODE":"291.1784","APOAPSIS":"550.832","RCS_SIZE":"LARGE","MEAN_MOTION_DDOT":"0.0000000000000","FILE":"3215928","MEAN_MOTION_DOT":"-0.00000452","PERIOD":"95.645","CLASSIFICATION_TYPE":"U","NORAD_CAT_ID":"47374","SEMIMAJOR_AXIS":"6927.879","MEAN_MOTION":"15.05574740","REF_FRAME":"TEME","EPHEMERIS_TYPE":"0","OBJECT_NAME":"STARLINK-2093","PERIAPSIS":"548.656","GP_ID":"189838221","ECCENTRICITY":"0.00015710","DECAY_DATE":null,"ELEMENT_SET_NO":"999","INCLINATION":"53.0529","EPOCH":"2021-11-15T21:39:31.318848","BSTAR":"-0.00001183500000","OBJECT_TYPE":"PAYLOAD","TLE_LINE2":"2 47374  53.0529 291.1784 0001571  61.5802 298.5344 15.05574740 45685","TLE_LINE1":"1 47374U 21005AB  21319.90244582 -.00000452  00000-0 -11835-4 0  9998","CENTER_NAME":"EARTH","REV_AT_EPOCH":"4568","LAUNCH_DATE":"2021-01-20","TIME_SYSTEM":"UTC","OBJECT_ID":"2021-005AB"},{"RCS_SIZE":"LARGE","MEAN_MOTION_DDOT":"0.0000000000000","FILE":"3215928","MEAN_ANOMALY":"293.9132","SITE":"AFETR","MEAN_ELEMENT_THEORY":"SGP4","COUNTRY_CODE":"US","ARG_OF_PERICENTER":"66.2037","RA_OF_ASC_NODE":"291.0958","APOAPSIS":"548.409","REF_FRAME":"TEME","OBJECT_NAME":"STARLINK-2094","EPHEMERIS_TYPE":"0","PERIAPSIS":"546.039","MEAN_MOTION_DOT":"-0.00000210","PERIOD":"95.592","CLASSIFICATION_TYPE":"U","NORAD_CAT_ID":"47375","SEMIMAJOR_AXIS":"6925.359","MEAN_MOTION":"15.06396542","ECCENTRICITY":"0.00017110","DECAY_DATE":null,"ELEMENT_SET_NO":"999","EPOCH":"2021-11-15T21:47:41.672544","INCLINATION":"53.0553","OBJECT_TYPE":"PAYLOAD","BSTAR":"0.00000481710000","GP_ID":"189838472","LAUNCH_DATE":"2021-01-20","TIME_SYSTEM":"UTC","OBJECT_ID":"2021-005AC","TLE_LINE2":"2 47375  53.0553 291.0958 0001711  66.2037 293.9132 15.06396542 45680","TLE_LINE1":"1 47375U 21005AC  21319.90812121 -.00000210  00000-0  48171-5 0  9994","CENTER_NAME":"EARTH","REV_AT_EPOCH":"4568"},{"ARG_OF_PERICENTER":"64.0735","RA_OF_ASC_NODE":"292.2665","SITE":"AFETR","MEAN_ELEMENT_THEORY":"SGP4","MEAN_ANOMALY":"296.0422","COUNTRY_CODE":"US","APOAPSIS":"548.352","RCS_SIZE":"LARGE","MEAN_MOTION_DDOT":"0.0000000000000","FILE":"3215928","SEMIMAJOR_AXIS":"6925.354","MEAN_MOTION_DOT":"0.00001302","PERIOD":"95.592","NORAD_CAT_ID":"47376","CLASSIFICATION_TYPE":"U","MEAN_MOTION":"15.06398103","REF_FRAME":"TEME","PERIAPSIS":"546.087","OBJECT_NAME":"STARLINK-2096","EPHEMERIS_TYPE":"0","GP_ID":"189837220","ELEMENT_SET_NO":"999","ECCENTRICITY":"0.00016350","DECAY_DATE":null,"INCLINATION":"53.0561","EPOCH":"2021-11-15T15:30:50.631840","OBJECT_TYPE":"PAYLOAD","BSTAR":"0.00010632000000","TLE_LINE2":"2 47376  53.0561 292.2665 0001635  64.0735 296.0422 15.06398103 45641","TLE_LINE1":"1 47376U 21005AD  21319.64641935  .00001302  00000-0  10632-3 0  9990","REV_AT_EPOCH":"4564","CENTER_NAME":"EARTH","LAUNCH_DATE":"2021-01-20","TIME_SYSTEM":"UTC","OBJECT_ID":"2021-005AD"}];
